COSMOS 2251 DEB         
1 35432U 93036AKA 17345.94477119  .00000520  00000-0  14736-3 0  9991
2 35432  74.0459 180.0359 0009942 227.7670 201.9748 14.47981859448844
